GLOBALSTAR M084         
1 38040U 11080A   25303.57463368 -.00000097  00000+0  35286-4 0  9994
2 38040  52.0032 356.3060 0000265  62.1822  87.1584 12.62264427639766
GLOBALSTAR M080         
1 38041U 11080B   25304.32245997 -.00000090  00000+0  77766-4 0  9997
2 38041  52.0082 355.6689 0000855 109.8295 328.7779 12.62269994639987
GLOBALSTAR M082         
1 38042U 11080C   25304.17890502 -.00000088  00000+0  90292-4 0  9995
2 38042  52.0083 311.5821 0000616 103.6585 332.6225 12.62264341640676
GLOBALSTAR M092         
1 38043U 11080D   25303.69330317 -.00000098  00000+0  33088-4 0  9996
2 38043  52.0100  43.4420 0000641 108.6667  39.1115 12.62267356639064
GLOBALSTAR M090         
1 38044U 11080E   25304.20636159 -.00000081  00000+0  12443-3 0  9991
2 38044  52.0130 305.3808 0000314 101.3373 338.8518 12.62263591640794
GLOBALSTAR M086         
1 38045U 11080F   25304.31570132 -.00000080  00000+0  13450-3 0  9990
2 38045  51.9904 305.3501 0000640 264.1819 200.1735 12.62278759640757
GLOBALSTAR M097         
1 39072U 13005A   25304.08286596 -.00000108  00000+0 -22435-4 0  9998
2 39072  52.0042 220.7503 0000606  76.8243 283.2691 12.62266840587971
GLOBALSTAR M093         
1 39073U 13005B   25304.05687532 -.00000093  00000+0  60581-4 0  9997
2 39073  52.0100 214.0902 0000603  95.0574 265.0362 12.62265913587921
